NORAD_CAT_ID,OBJECT_NAME,OBJECT_TYPE,EPOCH,MEAN_MOTION,ECCENTRICITY,INCLINATION,RA_OF_ASC_NODE,ARG_OF_PERICENTER,MEAN_ANOMALY,BSTAR,MEAN_MOTION_DOT,MEAN_MOTION_DDOT,TLE_LINE0,TLE_LINE1,TLE_LINE2,SEMIMAJOR_AXIS,PERIOD,APOGEE,PERIGEE,DECAYED
52707.0,STARLINK-4007,PAYLOAD,2024-07-06 11:06:25,15.08837998,0.0001113,53.2178,357.9118,87.5665,272.5454,9.2841e-05,1.19e-05,0.0,0 STARLINK-4007,1 52707U 22053BD  24188.46279565  .00001190  00000-0  92841-4 0  9999,2 52707  53.2178 357.9118 0001113  87.5665 272.5454 15.08837998118621,6917.887,95.438,540.521,538.982,0.0
52707.0,STARLINK-4007,PAYLOAD,2024-07-06 19:03:21,15.0883787,0.0001277,53.2188,356.4259,81.8806,278.2331,-2.8849e-06,-3.34e-06,0.0,0 STARLINK-4007,1 52707U 22053BD  24188.79400015 -.00000334  00000-0 -28849-5 0  9990,2 52707  53.2188 356.4259 0001277  81.8806 278.2331 15.08837870119152,6917.887,95.438,540.635,538.868,0.0
52707.0,STARLINK-4007,PAYLOAD,2024-07-07 04:35:40,15.08843046,0.00013,53.2188,354.6426,80.5818,279.5321,1.8683e-05,9e-08,0.0,0 STARLINK-4007,1 52707U 22053BD  24189.19143649  .00000009  00000-0  18683-4 0  9993,2 52707  53.2188 354.6426 0001300  80.5818 279.5321 15.08843046119216,6917.871,95.437,540.635,538.837,0.0
52707.0,STARLINK-4007,PAYLOAD,2024-07-07 20:29:30,15.08854209,0.000121,53.2185,351.6668,86.662,273.4511,0.00012528,1.707e-05,0.0,0 STARLINK-4007,1 52707U 22053BD  24189.85382638  .00001707  00000-0  12528-3 0  9996,2 52707  53.2185 351.6668 0001210  86.6620 273.4511 15.08854209118830,6917.837,95.437,540.539,538.865,0.0
52707.0,STARLINK-4007,PAYLOAD,2024-07-08 10:47:59,15.08835879,0.0001196,53.2195,348.9871,109.3144,250.7977,0.00030925,4.637e-05,0.0,0 STARLINK-4007,1 52707U 22053BD  24190.44999788  .00004637  00000-0  30925-3 0  9999,2 52707  53.2195 348.9871 0001196 109.3144 250.7977 15.08835879118929,6917.893,95.438,540.585,538.931,0.0
52707.0,STARLINK-4007,PAYLOAD,2024-07-08 17:09:31,15.08846935,0.0001318,53.2188,347.8023,91.5726,268.5418,0.00016266,2.302e-05,0.0,0 STARLINK-4007,1 52707U 22053BD  24190.71495031  .00002302  00000-0  16266-3 0  9990,2 52707  53.2188 347.8023 0001318  91.5726 268.5418 15.08846935118968,6917.859,95.437,540.636,538.812,0.0
52707.0,STARLINK-4007,PAYLOAD,2024-07-09 10:38:46,15.088417,0.0001478,53.2179,344.5341,71.1947,288.9206,4.0572e-05,3.58e-06,0.0,0 STARLINK-4007,1 52707U 22053BD  24191.44359467  .00000358  00000-0  40572-4 0  9990,2 52707  53.2179 344.5341 0001478  71.1947 288.9206 15.08841700119070,6917.875,95.437,540.763,538.718,0.0
52707.0,STARLINK-4007,PAYLOAD,2024-07-09 13:49:33,15.08839849,0.0001419,53.2184,343.9381,82.2827,277.8327,1.6264e-05,-2.9e-07,0.0,0 STARLINK-4007,1 52707U 22053BD  24191.57607722 -.00000029  00000-0  16264-4 0  9991,2 52707  53.2184 343.9381 0001419  82.2827 277.8327 15.08839849119575,6917.881,95.438,540.727,538.764,0.0
52707.0,STARLINK-4007,PAYLOAD,2024-07-09 17:00:19,15.08844172,0.0001313,53.2185,343.3434,86.0917,274.0225,-4.249e-05,-9.64e-06,0.0,0 STARLINK-4007,1 52707U 22053BD  24191.70855527 -.00000964  00000-0 -42490-4 0  9993,2 52707  53.2185 343.3434 0001313  86.0917 274.0225 15.08844172119597,6917.868,95.437,540.641,538.824,0.0
52707.0,STARLINK-4007,PAYLOAD,2024-07-10 10:29:34,15.08834165,0.0001459,53.2189,340.0698,94.2863,265.8296,-2.6447e-05,-7.09e-06,0.0,0 STARLINK-4007,1 52707U 22053BD  24192.43720136 -.00000709  00000-0 -26447-4 0  9992,2 52707  53.2189 340.0698 0001459  94.2863 265.8296 15.08834165119226,6917.898,95.438,540.773,538.754,0.0
52707.0,STARLINK-4007,PAYLOAD,2024-07-10 16:51:06,15.08842133,0.0001524,53.2193,338.8827,96.6244,263.4922,3.36e-05,2.47e-06,0.0,0 STARLINK-4007,1 52707U 22053BD  24192.70215494  .00000247  00000-0  33600-4 0  9992,2 52707  53.2193 338.8827 0001524  96.6244 263.4922 15.08842133119260,6917.874,95.437,540.793,538.685,0.0
52707.0,STARLINK-4007,PAYLOAD,2024-07-11 13:31:07,15.0883533,0.0001476,53.2184,335.0186,106.8777,253.2377,9.9205e-05,1.291e-05,0.0,0 STARLINK-4007,1 52707U 22053BD  24193.56327897  .00001291  00000-0  99205-4 0  9991,2 52707  53.2184 335.0186 0001476 106.8777 253.2377 15.08835330119877,6917.895,95.438,540.781,538.739,0.0
52707.0,STARLINK-4007,PAYLOAD,2024-07-12 02:14:12,15.08837477,0.0001302,53.2176,332.6369,86.9897,273.1244,0.00010173,1.331e-05,0.0,0 STARLINK-4007,1 52707U 22053BD  24194.09319954  .00001331  00000-0  10173-3 0  9996,2 52707  53.2176 332.6369 0001302  86.9897 273.1244 15.08837477119950,6917.888,95.438,540.654,538.852,0.0
52707.0,STARLINK-4007,PAYLOAD,2024-07-12 18:08:03,15.08842781,0.0001127,53.2192,329.6588,53.2298,306.8798,6.265e-05,7.09e-06,0.0,0 STARLINK-4007,1 52707U 22053BD  24194.75560068  .00000709  00000-0  62650-4 0  9999,2 52707  53.2192 329.6588 0001127  53.2298 306.8798 15.08842781119574,6917.872,95.437,540.517,538.957,0.0
52707.0,STARLINK-4007,PAYLOAD,2024-07-13 14:48:04,15.08843381,0.000137,53.218,325.7987,93.8357,266.2792,6.9522e-05,8.19e-06,0.0,0 STARLINK-4007,1 52707U 22053BD  24195.61672004  .00000819  00000-0  69522-4 0  9996,2 52707  53.2180 325.7987 0001370  93.8357 266.2792 15.08843381120186,6917.87,95.437,540.683,538.787,0.0
52707.0,STARLINK-4007,PAYLOAD,2024-07-13 16:23:27,15.08846673,0.0001309,53.2177,325.5007,91.5863,268.5279,7.6393e-05,9.28e-06,0.0,0 STARLINK-4007,1 52707U 22053BD  24195.68295766  .00000928  00000-0  76393-4 0  9994,2 52707  53.2177 325.5007 0001309  91.5863 268.5279 15.08846673120195,6917.86,95.437,540.631,538.819,0.0
52707.0,STARLINK-4007,PAYLOAD,2024-07-14 01:55:46,15.08839394,0.0001419,53.2183,323.715,79.7387,280.3765,6.408e-05,7.32e-06,0.0,0 STARLINK-4007,1 52707U 22053BD  24196.08040354  .00000732  00000-0  64080-4 0  9993,2 52707  53.2183 323.7150 0001419  79.7387 280.3765 15.08839394119778,6917.882,95.438,540.729,538.766,0.0
52707.0,STARLINK-4007,PAYLOAD,2024-07-14 14:38:52,15.08834987,0.0001103,53.217,321.3346,86.158,273.9539,8.6915e-05,1.096e-05,0.0,0 STARLINK-4007,1 52707U 22053BD  24196.61032617  .00001096  00000-0  86915-4 0  9990,2 52707  53.2170 321.3346 0001103  86.1580 273.9539 15.08834987120336,6917.896,95.438,540.524,538.998,0.0
52707.0,STARLINK-4007,PAYLOAD,2024-07-15 12:54:15,15.08845638,0.0001385,53.2177,317.1744,86.0525,274.0626,0.00010376,1.364e-05,0.0,0 STARLINK-4007,1 52707U 22053BD  24197.53767991  .00001364  00000-0  10376-3 0  9997,2 52707  53.2177 317.1744 0001385  86.0525 274.0626 15.08845638119992,6917.863,95.437,540.686,538.77,0.0
52707.0,STARLINK-4007,PAYLOAD,2024-07-15 14:29:38,15.08848718,0.0001411,53.2179,316.8766,88.6721,271.4433,0.00012431,1.691e-05,0.0,0 STARLINK-4007,1 52707U 22053BD  24197.60391736  .00001691  00000-0  12431-3 0  9992,2 52707  53.2179 316.8766 0001411  88.6721 271.4433 15.08848718120485,6917.854,95.437,540.695,538.743,0.0
52707.0,STARLINK-4007,PAYLOAD,2024-07-16 14:20:25,15.08847497,0.0001573,53.2188,312.4151,113.1885,246.9273,9.9312e-05,1.293e-05,0.0,0 STARLINK-4007,1 52707U 22053BD  24198.59751553  .00001293  00000-0  99312-4 0  9990,2 52707  53.2188 312.4151 0001573 113.1885 246.9273 15.08847497120638,6917.857,95.437,540.811,538.634,0.0
52707.0,STARLINK-4007,PAYLOAD,2024-07-17 12:35:49,15.08843403,0.0001414,53.2175,308.253,93.0987,267.0167,-6.7522e-06,-3.95e-06,0.0,0 STARLINK-4007,1 52707U 22053BD  24199.52488230 -.00000395  00000-0 -67522-5 0  9996,2 52707  53.2175 308.2530 0001414  93.0987 267.0167 15.08843403120292,6917.87,95.437,540.713,538.757,0.0
52707.0,STARLINK-4007,PAYLOAD,2024-07-17 14:11:12,15.08841248,8.69e-05,53.2171,307.9599,67.9894,292.1191,9.4202e-05,1.212e-05,0.0,0 STARLINK-4007,1 52707U 22053BD  24199.59112039  .00001212  00000-0  94202-4 0  9995,2 52707  53.2171 307.9599 0000869  67.9894 292.1191 15.08841248120784,6917.877,95.437,540.343,539.14,0.0
52707.0,STARLINK-4007,PAYLOAD,2024-07-18 12:26:36,15.08846686,0.0001631,53.2178,303.7908,112.5806,247.5358,9.3075e-05,1.194e-05,0.0,0 STARLINK-4007,1 52707U 22053BD  24200.51847796  .00001194  00000-0  93075-4 0  9991,2 52707  53.2178 303.7908 0001631 112.5806 247.5358 15.08846686120923,6917.86,95.437,540.853,538.597,0.0
52707.0,STARLINK-4007,PAYLOAD,2024-07-19 13:52:47,15.08839098,0.0001128,53.2165,299.0373,89.7995,270.3127,3.419e-05,2.56e-06,0.0,0 STARLINK-4007,1 52707U 22053BD  24201.57832688  .00000256  00000-0  34190-4 0  9993,2 52707  53.2165 299.0373 0001128  89.7995 270.3127 15.08839098120609,6917.883,95.438,540.528,538.968,0.0
52707.0,STARLINK-4007,PAYLOAD,2024-07-20 12:08:10,15.08864869,0.000162,53.2183,294.876,105.9998,254.1173,-0.00021411,-3.696e-05,0.0,0 STARLINK-4007,1 52707U 22053BD  24202.50567949 -.00003696  00000-0 -21411-3 0  9996,2 52707  53.2183 294.8760 0001620 105.9998 254.1173 15.08864869120743,6917.804,95.436,540.79,538.549,0.0
52707.0,STARLINK-4007,PAYLOAD,2024-07-20 13:43:33,15.08854074,0.0001072,53.216,294.5756,98.1272,261.9841,0.00013745,1.901e-05,0.0,0 STARLINK-4007,1 52707U 22053BD  24202.57191605  .00001901  00000-0  13745-3 0  9991,2 52707  53.2160 294.5756 0001072  98.1272 261.9841 15.08854074121239,6917.837,95.437,540.444,538.961,0.0
52707.0,STARLINK-4007,PAYLOAD,2024-07-20 23:15:53,15.0884136,0.0001295,53.217,292.7906,101.4194,258.6944,0.00011035,1.469e-05,0.0,0 STARLINK-4007,1 52707U 22053BD  24202.96936416  .00001469  00000-0  11035-3 0  9990,2 52707  53.2170 292.7906 0001295 101.4194 258.6944 15.08841360120819,6917.876,95.437,540.637,538.845,0.0
52707.0,STARLINK-4007,PAYLOAD,2024-07-21 11:58:56,15.08858458,0.0001541,53.217,290.4131,84.1235,275.9932,0.00021556,3.146e-05,0.0,0 STARLINK-4007,1 52707U 22053BD  24203.49926949  .00003146  00000-0  21556-3 0  9992,2 52707  53.2170 290.4131 0001541  84.1235 275.9932 15.08858458120894,6917.824,95.436,540.755,538.623,0.0
52707.0,STARLINK-4007,PAYLOAD,2024-07-21 13:34:19,15.08870107,0.0001303,53.2169,290.1155,91.2539,268.8603,0.00030663,4.599e-05,0.0,0 STARLINK-4007,1 52707U 22053BD  24203.56549793  .00004599  00000-0  30663-3 0  9990,2 52707  53.2169 290.1155 0001303  91.2539 268.8603 15.08870107121383,6917.788,95.436,540.555,538.752,0.0
